NORAD_CAT_ID,OBJECT_NAME,OBJECT_TYPE,EPOCH,MEAN_MOTION,ECCENTRICITY,INCLINATION,RA_OF_ASC_NODE,ARG_OF_PERICENTER,MEAN_ANOMALY,BSTAR,MEAN_MOTION_DOT,MEAN_MOTION_DDOT,TLE_LINE0,TLE_LINE1,TLE_LINE2,SEMIMAJOR_AXIS,PERIOD,APOGEE,PERIGEE,DECAYED
55423.0,STARLINK-5068,PAYLOAD,2023-12-30 03:04:24,14.98329802,0.0002699,70.0005,303.0417,268.8874,91.1976,4.69e-05,4.67e-06,0.0,0 STARLINK-5068,1 55423U 23014AJ  23364.12805750  .00000467  00000-0  46900-4 0  9995,2 55423  70.0005 303.0417 0002699 268.8874  91.1976 14.98329802 50701,6950.194,96.107,573.934,570.183,0.0
55423.0,STARLINK-5068,PAYLOAD,2023-12-30 06:16:40,14.98332214,0.0002808,70.0004,302.7054,270.8867,89.1971,6.6814e-05,7.04e-06,0.0,0 STARLINK-5068,1 55423U 23014AJ  23364.26157527  .00000704  00000-0  66814-4 0  9992,2 55423  70.0004 302.7054 0002808 270.8867  89.1971 14.98332214 51669,6950.186,96.107,574.003,570.099,0.0
55423.0,STARLINK-5068,PAYLOAD,2023-12-30 22:18:00,14.98329982,0.0002566,70.0006,301.0232,264.1832,95.9035,-2.1421e-05,-3.49e-06,0.0,0 STARLINK-5068,1 55423U 23014AJ  23364.92917812 -.00000349  00000-0 -21421-4 0  9998,2 55423  70.0006 301.0232 0002566 264.1832  95.9035 14.98329982 51765,6950.193,96.107,573.841,570.275,0.0
55423.0,STARLINK-5068,PAYLOAD,2023-12-31 03:06:25,14.9832629,0.0002611,70.0005,300.5169,272.6441,87.4419,-6.7732e-06,-1.74e-06,0.0,0 STARLINK-5068,1 55423U 23014AJ  23365.12946064 -.00000174  00000-0 -67732-5 0  9994,2 55423  70.0005 300.5169 0002611 272.6441  87.4419 14.98326290 50858,6950.204,96.107,573.884,570.255,0.0
55423.0,STARLINK-5068,PAYLOAD,2023-12-31 22:20:01,14.98332003,0.0002626,70.0004,298.4977,264.818,95.2679,-8.3326e-06,-1.92e-06,0.0,0 STARLINK-5068,1 55423U 23014AJ  23365.93057554 -.00000192  00000-0 -83326-5 0  9997,2 55423  70.0004 298.4977 0002626 264.8180  95.2679 14.98332003 51910,6950.187,96.107,573.877,570.227,0.0
55423.0,STARLINK-5068,PAYLOAD,2024-01-01 03:08:25,14.98331995,0.0002699,70.0001,297.9925,264.8555,95.2296,1.7636e-05,1.17e-06,0.0,0 STARLINK-5068,1 55423U 23014AJ  24001.13085446  .00000117  00000-0  17636-4 0  9993,2 55423  70.0001 297.9925 0002699 264.8555  95.2296 14.98331995 51004,6950.187,96.107,573.928,570.176,0.0
55423.0,STARLINK-5068,PAYLOAD,2024-01-01 04:44:33,14.98332525,0.0002641,70.0003,297.8243,262.912,97.1739,2.9667e-05,2.61e-06,0.0,0 STARLINK-5068,1 55423U 23014AJ  24001.19761363  .00000261  00000-0  29667-4 0  9995,2 55423  70.0003 297.8243 0002641 262.9120  97.1739 14.98332525 51959,6950.185,96.107,573.886,570.215,0.0
55423.0,STARLINK-5068,PAYLOAD,2024-01-01 22:22:02,14.9832949,0.0002654,70.0002,295.9726,263.2891,96.7966,2.1783e-05,1.67e-06,0.0,0 STARLINK-5068,1 55423U 23014AJ  24001.93197466  .00000167  00000-0  21783-4 0  9990,2 55423  70.0002 295.9726 0002654 263.2891  96.7966 14.98329490 52063,6950.194,96.107,573.904,570.215,0.0
55423.0,STARLINK-5068,PAYLOAD,2024-01-02 03:10:26,14.98331127,0.0002615,70.0002,295.4677,262.9104,97.1758,4.0957e-05,3.96e-06,0.0,0 STARLINK-5068,1 55423U 23014AJ  24002.13225296  .00000396  00000-0  40957-4 0  9994,2 55423  70.0002 295.4677 0002615 262.9104  97.1758 14.98331127 51156,6950.189,96.107,573.872,570.237,0.0
55423.0,STARLINK-5068,PAYLOAD,2024-01-02 04:46:34,14.98332262,0.0002607,70.0002,295.2994,262.352,97.7343,5.2632e-05,5.35e-06,0.0,0 STARLINK-5068,1 55423U 23014AJ  24002.19901181  .00000535  00000-0  52632-4 0  9992,2 55423  70.0002 295.2994 0002607 262.3520  97.7343 14.98332262 52106,6950.186,96.107,573.863,570.239,0.0
55423.0,STARLINK-5068,PAYLOAD,2024-01-02 22:24:03,14.9836617,0.0002577,70.0008,293.4492,253.3923,106.6953,-0.00063929,-7.719e-05,0.0,0 STARLINK-5068,1 55423U 23014AJ  24002.93337026 -.00007719  00000-0 -63929-3 0  9998,2 55423  70.0008 293.4492 0002577 253.3923 106.6953 14.98366170 52212,6950.081,96.105,573.737,570.155,0.0
55423.0,STARLINK-5068,PAYLOAD,2024-01-03 03:12:27,14.98326786,0.0002477,70.0007,292.9436,252.9443,107.1445,-3.7414e-05,-5.39e-06,0.0,0 STARLINK-5068,1 55423U 23014AJ  24003.13365692 -.00000539  00000-0 -37414-4 0  9995,2 55423  70.0007 292.9436 0002477 252.9443 107.1445 14.98326786 51304,6950.203,96.107,573.789,570.346,0.0
55423.0,STARLINK-5068,PAYLOAD,2024-01-03 04:48:35,14.98327831,0.000272,70.0006,292.7756,265.4866,94.5983,-1.9321e-05,-3.23e-06,0.0,0 STARLINK-5068,1 55423U 23014AJ  24003.20041612 -.00000323  00000-0 -19321-4 0  9994,2 55423  70.0006 292.7756 0002720 265.4866  94.5983 14.98327831 52258,6950.2,96.107,573.955,570.174,0.0
55423.0,STARLINK-5068,PAYLOAD,2024-01-03 22:26:04,14.98346223,0.0002693,70.0003,290.9242,260.576,99.5095,-0.00028098,-3.445e-05,0.0,0 STARLINK-5068,1 55423U 23014AJ  24003.93477189 -.00003445  00000-0 -28098-3 0  9994,2 55423  70.0003 290.9242 0002693 260.5760  99.5095 14.98346223 52360,6950.143,96.106,573.879,570.136,0.0
55423.0,STARLINK-5068,PAYLOAD,2024-01-04 03:14:28,14.9833101,0.0002593,70.0003,290.4191,259.659,100.4277,-1.3354e-05,-2.52e-06,0.0,0 STARLINK-5068,1 55423U 23014AJ  24004.13505331 -.00000252  00000-0 -13354-4 0  9991,2 55423  70.0003 290.4191 0002593 259.6590 100.4277 14.98331010 51458,6950.19,96.107,573.857,570.253,0.0
55423.0,STARLINK-5068,PAYLOAD,2024-01-04 04:50:36,14.983303,0.0002808,70.0002,290.2508,266.6951,93.3887,1.9997e-05,1.46e-06,0.0,0 STARLINK-5068,1 55423U 23014AJ  24004.20181298  .00000146  00000-0  19997-4 0  9990,2 55423  70.0002 290.2508 0002808 266.6951  93.3887 14.98330300 52409,6950.192,96.107,574.009,570.105,0.0
55423.0,STARLINK-5068,PAYLOAD,2024-01-04 22:28:05,14.98325897,0.0002686,70.0001,288.3992,263.4359,96.6494,-7.8675e-06,-1.87e-06,0.0,0 STARLINK-5068,1 55423U 23014AJ  24004.93617683 -.00000187  00000-0 -78675-5 0  9998,2 55423  70.0001 288.3992 0002686 263.4359  96.6494 14.98325897 52511,6950.206,96.107,573.937,570.204,0.0
55423.0,STARLINK-5068,PAYLOAD,2024-01-05 04:52:37,14.98326959,0.0002532,70.0003,287.726,264.7045,95.3825,1.4501e-05,8e-07,0.0,0 STARLINK-5068,1 55423U 23014AJ  24005.20321663  .00000080  00000-0  14501-4 0  9996,2 55423  70.0003 287.7260 0002532 264.7045  95.3825 14.98326959 51614,6950.202,96.107,573.827,570.308,0.0
55423.0,STARLINK-5068,PAYLOAD,2024-01-05 19:17:50,14.98363694,0.0002603,70.0001,286.2098,272.4131,87.673,-0.0005395,-6.53e-05,0.0,0 STARLINK-5068,1 55423U 23014AJ  24005.80405297 -.00006530  00000-0 -53950-3 0  9996,2 55423  70.0001 286.2098 0002603 272.4131  87.6730 14.98363694 51702,6950.089,96.105,573.763,570.145,0.0
55423.0,STARLINK-5068,PAYLOAD,2024-01-05 22:30:06,14.98330174,0.0002572,70.0001,285.8727,262.0367,98.0501,4.0918e-05,3.95e-06,0.0,0 STARLINK-5068,1 55423U 23014AJ  24005.93757303  .00000395  00000-0  40918-4 0  9990,2 55423  70.0001 285.8727 0002572 262.0367  98.0501 14.98330174 52662,6950.192,96.107,573.845,570.27,0.0
55423.0,STARLINK-5068,PAYLOAD,2024-01-06 03:18:30,14.98332947,0.0002686,70.0007,285.3674,271.7266,88.3585,8.5944e-05,9.33e-06,0.0,0 STARLINK-5068,1 55423U 23014AJ  24006.13785013  .00000933  00000-0  85944-4 0  9998,2 55423  70.0007 285.3674 0002686 271.7266  88.3585 14.98332947 51758,6950.184,96.107,573.916,570.182,0.0
55423.0,STARLINK-5068,PAYLOAD,2024-01-06 04:54:37,14.98361205,0.0002414,70.0009,285.1994,270.2534,89.8348,-0.00035086,-4.28e-05,0.0,0 STARLINK-5068,1 55423U 23014AJ  24006.20460234 -.00004280  00000-0 -35086-3 0  9993,2 55423  70.0009 285.1994 0002414 270.2534  89.8348 14.98361205 51767,6950.096,96.105,573.639,570.284,0.0
55423.0,STARLINK-5068,PAYLOAD,2024-01-06 19:19:51,14.98326687,0.0002234,70.0017,283.685,247.2077,112.8847,7.9064e-05,8.51e-06,0.0,0 STARLINK-5068,1 55423U 23014AJ  24006.80545195  .00000851  00000-0  79064-4 0  9992,2 55423  70.0017 283.6850 0002234 247.2077 112.8847 14.98326687 51852,6950.203,96.107,573.621,570.515,0.0
55423.0,STARLINK-5068,PAYLOAD,2024-01-06 22:32:07,14.98325791,0.0002405,70.0007,283.3489,257.8645,102.2245,2.0691e-05,1.54e-06,0.0,0 STARLINK-5068,1 55423U 23014AJ  24006.93897457  .00000154  00000-0  20691-4 0  9995,2 55423  70.0007 283.3489 0002405 257.8645 102.2245 14.98325791 52811,6950.206,96.107,573.742,570.399,0.0
55423.0,STARLINK-5068,PAYLOAD,2024-01-07 03:20:31,14.98326204,0.0002398,70.0005,282.844,252.4496,107.6401,-4.4976e-06,-1.47e-06,0.0,0 STARLINK-5068,1 55423U 23014AJ  24007.13925466 -.00000147  00000-0 -44976-5 0  9997,2 55423  70.0005 282.8440 0002398 252.4496 107.6401 14.98326204 52842,6950.205,96.107,573.736,570.403,0.0
55423.0,STARLINK-5068,PAYLOAD,2024-01-07 19:21:52,14.98330033,0.0002559,70.0,281.1596,259.1542,100.933,-4.1288e-05,-5.86e-06,0.0,0 STARLINK-5068,1 55423U 23014AJ  24007.80685331 -.00000586  00000-0 -41288-4 0  9994,2 55423  70.0000 281.1596 0002559 259.1542 100.9330 14.98330033 52006,6950.193,96.107,573.836,570.279,0.0
55423.0,STARLINK-5068,PAYLOAD,2024-01-07 22:34:08,14.98329098,0.000265,69.9997,280.8228,261.461,98.6249,-5.1795e-05,-7.11e-06,0.0,0 STARLINK-5068,1 55423U 23014AJ  24007.94037414 -.00000711  00000-0 -51795-4 0  9996,2 55423  69.9997 280.8228 0002650 261.4610  98.6249 14.98329098 52966,6950.196,96.107,573.902,570.219,0.0
55423.0,STARLINK-5068,PAYLOAD,2024-01-08 04:58:40,14.98330475,0.0002844,69.9995,280.1497,268.0687,92.0147,-2.6827e-05,-4.13e-06,0.0,0 STARLINK-5068,1 55423U 23014AJ  24008.20741277 -.00000413  00000-0 -26827-4 0  9992,2 55423  69.9995 280.1497 0002844 268.0687  92.0147 14.98330475 53009,6950.191,96.107,574.033,570.08,0.0
55423.0,STARLINK-5068,PAYLOAD,2024-01-08 19:23:53,14.98325958,0.0002574,69.9997,278.6353,257.5602,102.5269,9.703e-06,2.3e-07,0.0,0 STARLINK-5068,1 55423U 23014AJ  24008.80825411  .00000023  00000-0  97030-5 0  9991,2 55423  69.9997 278.6353 0002574 257.5602 102.5269 14.98325958 52151,6950.205,96.107,573.859,570.281,0.0
55423.0,STARLINK-5068,PAYLOAD,2024-01-08 22:36:09,14.9832587,0.0002581,69.9998,278.2986,257.4681,102.619,7.7624e-06,0.0,0.0,0 STARLINK-5068,1 55423U 23014AJ  24008.94177451  .00000000  00000-0  77624-5 0  9992,2 55423  69.9998 278.2986 0002581 257.4681 102.6190 14.98325870 53118,6950.206,96.107,573.865,570.277,0.0
